ZIYUAN 3-02 (ZY 3-02)   
1 41556U 16033A   26068.93744604  .00008025  00000+0  35842-3 0  9992
2 41556  97.3895 146.5883 0010998 297.9383  62.0739 15.21559890542897
CONNECTA IOT-2          
1 60522U 24149BG  26068.80712403  .00006116  00000+0  26280-3 0  9996
2 60522  97.3884 148.5070 0005337 325.6165  34.4726 15.23021673 86760
